{
    "links": {
        "self": "http://www.neowsapp.com/rest/v1/neo/3826887?api_key=iIulBulltgU6a56xZRHN4H3l9WmuAYTsLGpBGhQ2"
    },
    "id": "3826887",
    "neo_reference_id": "3826887",
    "name": "(2018 PQ24)",
    "designation": "2018 PQ24",
    "nasa_jpl_url": "http://ssd.jpl.nasa.gov/sbdb.cgi?sstr=3826887",
    "absolute_magnitude_h": 25.8,
    "estimated_diameter": {
        "kilometers": {
            "estimated_diameter_min": 0.0183888672,
            "estimated_diameter_max": 0.0411187571
        },
        "meters": {
            "estimated_diameter_min": 18.388867207,
            "estimated_diameter_max": 41.1187571041
        },
        "miles": {
            "estimated_diameter_min": 0.0114263088,
            "estimated_diameter_max": 0.0255500032
        },
        "feet": {
            "estimated_diameter_min": 60.3309310875,
            "estimated_diameter_max": 134.9040630575
        }
    },
    "is_potentially_hazardous_asteroid": false,
    "close_approach_data": [
        {
            "close_approach_date": "2018-08-24",
            "close_approach_date_full": "2018-Aug-24 22:10",
            "epoch_date_close_approach": 1535148600000,
            "relative_velocity": {
                "kilometers_per_second": "5.0017149072",
                "kilometers_per_hour": "18006.1736658909",
                "miles_per_hour": "11188.3360758976"
            },
            "miss_distance": {
                "astronomical": "0.117876625",
                "lunar": "45.854007125",
                "kilometers": "17634092.02278875",
                "miles": "10957316.68543475"
            },
            "orbiting_body": "Earth"
        }
    ],
    "orbital_data": {
        "orbit_id": "2",
        "orbit_determination_date": "2018-09-08 07:05:35",
        "first_observation_date": "2018-08-13",
        "last_observation_date": "2018-09-07",
        "data_arc_in_days": 25,
        "observations_used": 21,
        "orbit_uncertainty": "8",
        "minimum_orbit_intersection": ".117771",
        "jupiter_tisserand_invariant": "3.577",
        "epoch_osculation": "2458345.5",
        "eccentricity": ".4685926158617378",
        "semi_major_axis": "2.122493107619237",
        "inclination": "3.891779542236199",
        "ascending_node_longitude": "143.6336915333327",
        "orbital_period": "1129.45221072436",
        "perihelion_distance": "1.12790851017143",
        "perihelion_argument": "190.4173066137315",
        "aphelion_distance": "3.117077705067044",
        "perihelion_time": "2458358.205451818808",
        "mean_anomaly": "355.9502822595412",
        "mean_motion": ".3187385854680108",
        "equinox": "J2000",
        "orbit_class": {
            "orbit_class_type": "AMO",
            "orbit_class_description": "Near-Earth asteroid orbits similar to that of 1221 Amor",
            "orbit_class_range": "1.017 AU < q (perihelion) < 1.3 AU"
        }
    },
    "is_sentry_object": false
}